COSMOS 2425 (716)       
1 29670U 06062A   21104.44217400  .00000012  00000-0  00000-0 0  9991
2 29670  64.8629 257.6092 0024379 348.6252  12.0234  2.13113766111316
COSMOS 2433 (720)       
1 32275U 07052A   21104.32243262 -.00000075  00000-0  00000-0 0  9998
2 32275  66.0516  18.9139 0003178 283.1723 162.3239  2.13104045104822
COSMOS 2432 (719)       
1 32276U 07052B   21105.34383188 -.00000072  00000-0  00000+0 0  9990
2 32276  66.0650  18.9741 0011754 332.2983 126.2228  2.13103546104848
COSMOS 2434 (721)       
1 32393U 07065A   21104.67024279  .00000014  00000-0  00000+0 0  9997
2 32393  64.4806 256.0895 0004825  83.3862 157.1565  2.13103048103538
COSMOS 2436 (723)       
1 32395U 07065C   21104.58341345  .00000013  00000-0  00000-0 0  9995
2 32395  64.4921 256.1452 0015519   7.3196 302.7306  2.13102950103460
COSMOS 2456 (730)       
1 36111U 09070A   21105.15222250  .00000051  00000-0  00000+0 0  9991
2 36111  64.2653 135.7528 0005655 304.6146 117.0651  2.13099221 88215
COSMOS 2457 (733)       
1 36112U 09070B   21104.42136191  .00000054  00000-0  00000-0 0  9993
2 36112  64.2477 135.6653 0004716 190.9262 153.9398  2.13101405 88192
COSMOS 2459 (731)       
1 36400U 10007A   21105.06363274 -.00000073  00000-0  00000+0 0  9991
2 36400  65.9516  17.8247 0026848 349.4947 161.1476  2.13107337 86551
COSMOS 2461 (735)       
1 36401U 10007B   21105.48468938 -.00000072  00000-0  00000+0 0  9990
2 36401  65.9466  17.7736 0021760   5.6018 109.5559  2.13103808 86575
COSMOS 2460 (732)       
1 36402U 10007C   21105.56062565 -.00000072  00000-0  00000+0 0  9996
2 36402  65.9328  17.7281 0001869 347.6721 129.9230  2.13106551 86576
COSMOS 2464 (736)       
1 37139U 10041C   21105.18238874  .00000019  00000-0  00000+0 0  9998
2 37139  64.0799 255.3612 0028439  14.0296 120.8004  2.13100635 82626
COSMOS 2471 (701K)      
1 37372U 11009A   21105.54821218 -.00000072  00000-0  00000+0 0  9992
2 37372  65.9291  17.6678 0013398 230.0886  37.6745  2.13081208 78846
COSMOS 2476 (744)       
1 37867U 11064A   21105.14160316  .00000052  00000-0  00000+0 0  9990
2 37867  64.5608 136.9410 0022041 240.9650  74.3850  2.13101862 73552
COSMOS 2477 (745)       
1 37868U 11064B   21104.52601883  .00000054  00000-0  00000+0 0  9993
2 37868  64.5682 137.0241 0019426 242.4376 139.0045  2.13101689 73501
COSMOS 2475 (743)       
1 37869U 11064C   21105.41469297  .00000052  00000-0  00000+0 0  9992
2 37869  64.5760 136.9972 0023728 260.3997  40.4291  2.13101852 73528
COSMOS 2485 (747)       
1 39155U 13019A   21105.23237343  .00000052  00000-0  00000+0 0  9999
2 39155  64.7269 137.2740 0022327 236.7749 192.6894  2.13101877 62037
COSMOS 2492 (754)       
1 39620U 14012A   21104.38350934 -.00000075  00000-0  00000-0 0  9994
2 39620  65.8200  17.5088 0014879 327.1535 205.9648  2.13103162 54964
COSMOS 2500 (755)       
1 40001U 14032A   21104.51666236 -.00000075  00000-0  00000-0 0  9991
2 40001  65.7627  17.3984 0004820 216.7448 278.3177  2.13102524 53180
COSMOS 2501 (702K)      
1 40315U 14075A   21105.52670911  .00000021  00000-0  00000+0 0  9992
2 40315  63.7926 256.1797 0016043 206.6459 149.3911  2.13101328 49609
COSMOS 2514 (751)       
1 41330U 16008A   21105.21937888 -.00000074  00000-0  00000+0 0  9992
2 41330  65.5634  17.1717 0008606 222.0632 275.1167  2.13102924 40369
COSMOS 2516 (753)       
1 41554U 16032A   21104.71036588  .00000013  00000-0  00000+0 0  9990
2 41554  64.0169 256.3641 0011821 211.9750 148.5381  2.13106769 37962
COSMOS 2522 (752)       
1 42939U 17055A   21105.14567002  .00000018  00000-0  00000+0 0  9997
2 42939  64.2501 256.6168 0005417 243.3153 315.4224  2.13101874 27725
COSMOS 2527 (756)       
1 43508U 18053A   21105.30216293  .00000052  00000-0  00000+0 0  9998
2 43508  64.8912 137.1827 0009193 241.1433 109.6955  2.13102592 22016
COSMOS 2529 (757)       
1 43687U 18086A   21105.42617175  .00000022  00000-0  00000+0 0  9996
2 43687  64.4635 256.8087 0007725 274.5001  94.9807  2.13102052 19041
COSMOS 2534 (758)       
1 44299U 19030A   21105.23938157  .00000020  00000-0  00000+0 0  9999
2 44299  64.5347 256.6606 0011061 296.8456  64.1979  2.13101956 14682
COSMOS 2544 (759)       
1 44850U 19088A   21105.14303497  .00000052  00000-0  00000+0 0  9993
2 44850  64.8755 137.0489 0013680 265.3493   7.2289  2.13102403 10454
COSMOS 2545 (760)       
1 45358U 20018A   21105.21169910 -.00000074  00000-0  00000+0 0  9995
2 45358  64.8952  18.1327 0008937 262.5191 272.8306  2.13102766  8404
